CUTE-1.7+APD II (CO-65) 
1 32785U 08021C   26095.24552648  .00007163  00000+0  45989-3 0  9998
2 32785  97.8239  75.2076 0007177 278.9265  81.1150 15.08760642974198
SEEDS II (CO-66)        
1 32791U 08021J   26095.21828436  .00023732  00000+0  81081-3 0  9996
2 32791  97.7527  89.7798 0003015 158.9144 201.2220 15.30294749976128
YUBILEINY (RS30)        
1 32953U 08025A   26095.26574293  .00000047  00000+0  26262-3 0  9998
2 32953  82.5058  40.7894 0020413 108.5712 251.7587 12.43177068810630
KKS-1 (KISEKI)          
1 33499U 09002H   26095.18592010  .00002520  00000+0  31728-3 0  9999
2 33499  98.1188  16.4862 0008239 157.1678 202.9903 14.82934969925375
SWISSCUBE               
1 35932U 09051B   26095.23210999  .00001815  00000+0  36901-3 0  9990
2 35932  98.4078   1.8437 0008089  80.6523 279.5592 14.62337809878490
BEESAT-1                
1 35933U 09051C   26094.99876049  .00001439  00000+0  29930-3 0  9993
2 35933  98.4009   1.3930 0006547  92.8438 267.3512 14.61597876878493
ITUPSAT1                
1 35935U 09051E   26095.19989211  .00001367  00000+0  29280-3 0  9992
2 35935  98.4093   0.8653 0008673 102.3407 257.8764 14.60328249878082
XIWANG-1 (HOPE-1)       
1 36122U 09072B   26095.28472072  .00000177  00000+0  58061-3 0  9993
2 36122 100.3966  50.3047 0008035  43.5004 316.6742 13.16438385783416
O/OREOS (USA 219)       
1 37224U 10062C   26094.85674956  .00004177  00000+0  40199-3 0  9992
2 37224  71.9707 246.4007 0015767 212.3881 147.6323 14.93442073105699
JUGNU                   
1 37839U 11058B   26095.16955251  .00000570  00000+0  15802-3 0  9991
2 37839  19.9620  32.0253 0018437 350.5168  40.3194 14.13753627748688
SRMSAT                  
1 37841U 11058D   26094.43294969  .00000492  00000+0  12313-3 0  9992
2 37841  19.9707 145.8850 0011920 111.8741  15.3851 14.11557506747382
STRAND-1                
1 39090U 13009E   26095.23056663  .00000503  00000+0  18366-3 0  9991
2 39090  98.3906 277.2648 0009856  89.8163 270.4154 14.37119172686589
ZACUBE-1 (TSHEPISOSAT)  
1 39417U 13066B   26095.13875085  .00006185  00000+0  48411-3 0  9999
2 39417  97.8146  57.0918 0044992 134.2019 226.2915 15.00595153669775
GOMX-1                  
1 39430U 13066Q   26095.25034567  .00002030  00000+0  31199-3 0  9999
2 39430  97.6535 300.2983 0128048 312.2182  46.8213 14.69206231659203
CUBEBUG-2 (LO-74)       
1 39440U 13066AA  26095.30272076  .00005449  00000+0  51027-3 0  9994
2 39440  97.8853  44.0303 0056639 269.2046  90.2684 14.93272372666113
FUNCUBE-1 (AO-73)       
1 39444U 13066AE  26095.18031921  .00011812  00000+0  74891-3 0  9991
2 39444  97.8239  65.1851 0039093  92.0712 268.4993 15.08440482668653
